TUBIN
1 48900U 21059X   25281.21485076  .00118941  00000-0  77897-3 0  9994
2 48900  97.6741 101.3988 0002229 151.8634 208.2751 15.75431136238925
LEDSAT
1 49069U 21073D   25281.20742612  .00953707  48117-3  14416-2 0  9996
2 49069  97.3647   9.8945 0007514 286.8494  73.1963 16.04645552230393
CUTE-LASP
1 49263U 21088D   25281.17255257  .00033497  00000-0  53454-3 0  9995
2 49263  97.4413   1.3491 0006747 144.1156 216.0551 15.53121250223101
JILIN-01 GAOFEN 2F
1 49338U 21097A   25281.17647214  .00006333  00000-0  44877-3 0  9994
2 49338  97.6426  43.9629 0019761   7.7251 352.4275 15.04993426218374
TEIKYOSAT-4 (OORURI)
1 49396U 21102B   25281.12798269  .00002922  00000-0  19245-3 0  9998
2 49396  97.3988 315.1750 0013994  81.5203 278.7611 15.08198567214711
Z-SAT
1 49399U 21102E   25281.16713694  .00006153  00000-0  32656-3 0  9995
2 49399  97.3681 319.0868 0018899  49.8787 310.4098 15.15534031215239
KOSEN-1
1 49402U 21102H   25281.12575128  .00012372  00000-0  54091-3 0  9991
2 49402  97.3576 323.4144 0015665  23.1335 337.0603 15.22108825215610
CAMSAT XW-3 (CAS-9)
1 50466U 21131B   25281.24305878  .00000861  00000-0  28169-3 0  9998
2 50466  98.5075   9.9954 0005109 127.3651 232.8004 14.40976811198821
SICH-2-1 (SICH-2-30)
1 51030U 22002AY  25281.17858155  .05153132  24429-5  93858-3 0  9995
2 51030  97.2950   5.3683 0009394 261.3893  98.6338 16.32346765208566
VZLUSAT-2
1 51085U 22002DF  25281.05540159  .00184278  00000-0  12217-2 0  9997
2 51085  97.3171 358.4181 0003073 131.3655 228.7874 15.74961841208101
INSPIRESAT-1
1 51657U 22013B   25281.02444321  .00055826  00000-0  89045-3 0  9995
2 51657  97.4735 314.9087 0002832 238.4226 121.6751 15.53044646203023
GOES-18
1 51850U 22021A   25281.03742852  .00000099  00000-0  00000+0 0  9992
2 51850   0.0486  40.2583 0000729 216.7038 356.4527  1.00271505  4069
MERIDIAN-10
1 52145U 22030A   25280.73931706  .00000289  00000-0  00000+0 0  9995
2 52145  62.6579 167.4587 6740062 273.1972  17.9321  2.00592823 25964
BRO-6
1 52422U 22047AE  25281.23012374  .00016398  00000-0  42704-3 0  9997
2 52422  97.3586   4.7197 0003766 254.8243 105.2586 15.38948439192275
CONNECTA-T1
1 52739U 22057H   25281.14662226  .00113693  00000-0  10706-2 0  9998
2 52739  97.6228  69.2627 0004647 253.8903 106.1846 15.66720090187902
PLATFORM-1
1 52770U 22057AQ  25269.24431773  .16420677  37577-5  24958-3 0  9990
2 52770  97.5905  64.5687 0014057 267.2240  92.7453 16.47667105186619
STEP CUBELAB-II
1 52897U 22065D   25281.17886535  .00001544  00000-0  31269-3 0  9995
2 52897  98.1887  61.5057 0009854  94.7360 265.4967 14.62651808174656
RANDEV
1 52898U 22065E   25281.17483113  .00001777  00000-0  35587-3 0  9996
2 52898  98.1876  61.7470 0009157  95.5088 264.7159 14.62986241174396
SNUGLITE-II
1 52899U 22065F   25280.83394826  .00002110  00000-0  41554-3 0  9994
2 52899  98.1866  61.7771 0008708  96.0730 264.1465 14.63557314174076
MIMAN
1 52900U 22065G   25281.12741520  .00001130  00000-0  23798-3 0  9998
2 52900  98.1915  60.5035 0008834  94.2234 265.9976 14.61371745173629
GREENCUBE (IO-117)
1 53106U 22080B   25051.21822557 -.00000003  00000-0  00000 0 0  9995
2 53106  70.1434 106.3440 0008542  48.0089 312.1297  6.42557744 61200
ROBUSTA 1F (MTCUBE-2)
1 53109U 22080E   25280.74200293 -.00000003  00000-0  00000-0 0  9998
2 53109  70.1613  26.0218 0008631 343.1541  16.8831  6.42583561 75847
BLUEWALKER-3
1 53807U 22111AL  25280.95153535  .00008718  00000-0  26694-3 0  9997
2 53807  53.2287 135.1868 0009100 113.6871 246.5088 15.34607748171424
ELEKTRO-L4
1 55506U 23016A   25280.49400181 -.00000056  00000-0  00000-0 0  9999
2 55506   0.0760  34.8996 0002550 195.1186 129.9903  1.00272336  9802
SHARJAHSAT-1
1 55104U 23001CZ  25281.12131100  .00026106  00000-0  69628-3 0  9997
2 55104  97.3569 342.7845 0005848 300.3228  59.7438 15.38107211153602
METEOR M2-3
1 57166U 23091A   25281.20588081  .00000036  00000-0  34755-4 0  9997
2 57166  98.6480 335.8555 0004136 167.3326 192.7958 14.24014485118653
STRATOSAT-TK1 (RS52S)
1 57167U 23091B   25281.16474653  .00106353  00000-0  16664-2 0  9998
2 57167  97.5359 349.3821 0006636 226.9782 133.0915 15.53322082126634
RESHUCUBE-2 (RS37S)
1 57168U 23091C   25281.14330399  .00013330  00000-0  60900-3 0  9990
2 57168  97.5422 337.7791 0011315 269.8691  90.1248 15.20644975125877
RASSVET 1-1
1 57169U 23091D   25281.16377500  .00012048  00000-0  57590-3 0  9994
2 57169  97.5483 337.5286 0009843 259.9217 100.0907 15.19121428125839
RASSVET 1-2
1 57170U 23091E   25281.16392249  .00011949  00000-0  57131-3 0  9993
2 57170  97.5489 337.5882 0008758 249.6948 110.3345 15.19122068125831
RASSVET 1-3
1 57171U 23091F   25281.16361922  .00011909  00000-0  56921-3 0  9990
2 57171  97.5485 337.5512 0010612 272.0128  87.9891 15.19119684125835
UMKA-1 (RS40S)
1 57172U 23091G   25281.13286348  .00009422  00000-0  48069-3 0  9997
2 57172  97.5443 335.9067 0012325 277.5981  82.3852 15.16888321125741
SATURN (RS43S)
1 57174U 23091J   25281.18698390  .00004970  00000-0  29693-3 0  9993
2 57174  97.5450 332.7115 0012501 299.8967  60.1021 15.11482954125533
CUBEBEL-2 (EU11S)
1 57175U 23091K   25281.14509234  .00015636  00000-0  68969-3 0  9998
2 57175  97.5442 337.8699 0009918 282.3189  77.6936 15.21826178125875
SITRO-AIS-5 (ANOKHIN)
1 57176U 23091L   25281.22676725  .00015739  00000-0  68455-3 0  9992
2 57176  97.5446 338.4603 0011793 268.1413  91.8472 15.22284633125911
ZORKIY-2M
1 57177U 23091M   25281.16220410  .00011539  00000-0  59418-3 0  9995
2 57177  97.5484 336.1229 0013082 273.5370  86.4367 15.16495963125745
CUBESX-HSE-3 (RS42S)
1 57178U 23091N   25281.17713396  .00018354  00000-0  77128-3 0  9997
2 57178  97.5473 339.4386 0011371 259.2428 100.7529 15.23425093125956
PHI-DEMO
1 57181U 23091R   25281.19953541  .00005029  00000-0  29427-3 0  9995
2 57181  97.5458 333.3053 0014318 288.9879  70.9800 15.12211400125571
MONITOR-3 (RS58S)
1 57180U 23091Q   25281.21507627  .00013610  00000-0  60798-3 0  9998
2 57180  97.5468 338.4020 0011953 263.3500  96.6375 15.21404552125890
NORBY-2
1 57179U 23091P   25281.22148382  .00006590  00000-0  36858-3 0  9995
2 57179  97.5490 334.5923 0014188 277.7602  82.2018 15.13722421125633
MONITOR-4 (RS57S)
1 57182U 23091S   25281.20731368  .00013782  00000-0  61457-3 0  9993
2 57182  97.5462 338.3533 0011972 264.0156  95.9715 15.21463748125892
MONITOR-2 (RS39S)
1 57184U 23091U   25281.21919420  .00007517  00000-0  39815-3 0  9995
2 57184  97.5471 336.1112 0010415 267.0215  92.9825 15.15656558125742
SVYATOBOR-1 (RS60S)
1 57187U 23091X   25281.20274882  .00012410  00000-0  56153-3 0  9995
2 57187  97.5472 339.0581 0009218 253.2373 106.7851 15.21013995125932
VIZARD-METEO (RS38S)
1 57189U 23091Z   25281.21665186  .00019563  00000-0  74813-3 0  9998
2 57189  97.5463 341.8600 0007757 239.7824 120.2647 15.26604496126126
NANOZOND-1 (RS49S)
1 57190U 23091AA  25281.20623285  .00055574  00000-0  12223-2 0  9991
2 57190  97.5408 348.3086 0005431 218.7394 141.3464 15.43788840126567
SITRO-AIS-6 (CHIRKIN)
1 57192U 23091AC  25281.16300188  .00010042  00000-0  44612-3 0  9991
2 57192  97.5444 338.3700 0011206 268.3883  91.6069 15.21683180125904
SITRO-AIS-8 (SHCHUKIN)
1 57193U 23091AD  25281.20580645  .00017375  00000-0  72060-3 0  9999
2 57193  97.5441 339.2118 0011141 266.3495  93.6468 15.23884423125966
SITRO-AIS-7 (SHEFFER)
1 57194U 23091AE  25281.19338410  .00009378  00000-0  41866-3 0  9993
2 57194  97.5445 338.3184 0011091 269.6760  90.3204 15.21536584125905
AVION KALUGA 650
1 57195U 23091AF  25281.20932303  .00008109  00000-0  41705-3 0  9990
2 57195  97.5482 336.8695 0009633 266.1445  93.8686 15.16677677125789
SITRO-AIS-10 (KATYS)
1 57199U 23091AK  25281.10177019  .00023548  00000-0  86761-3 0  9993
2 57199  97.5454 342.1107 0007399 243.4946 116.5535 15.27801405126137
SITRO-AIS-9 (BURDAEV)
1 57201U 23091AM  25281.20085309  .00023864  00000-0  88536-3 0  9991
2 57201  97.5451 342.0828 0007461 244.1203 115.9267 15.27569522126148
UTMN-2 (RS27S)
1 57203U 23091AP  25281.21344147  .00016405  00000-0  67071-3 0  9996
2 57203  97.5462 340.7854 0008276 244.0465 115.9920 15.24404477126050
SITRO-AIS-12 (FARTUSHNY)
1 57204U 23091AQ  25281.16681032  .00023496  00000-0  86599-3 0  9992
2 57204  97.5461 342.3835 0007406 236.1245 123.9290 15.27790484126158
ARCCUBE-1 (RS25S)
1 57205U 23091AR  25281.20605742  .00185153  00000-0  18885-2 0  9993
2 57205  97.5294 352.7892 0004955 221.8967 138.1913 15.64477813126888
AHMAT-1 (RS41S)
1 57206U 23091AS  25281.16750292  .00041230  00000-0  11539-2 0  9996
2 57206  97.5417 345.6797 0006083 229.1575 130.9142 15.36516319126395
SITRO-AIS-11 (SMIRENNY)
1 57208U 23091AU  25281.16792615  .00023937  00000-0  87567-3 0  9992
2 57208  97.5459 342.5114 0007298 236.5231 123.5311 15.28034042126162
KUZGTU-1 (RS47S)
1 57217U 23091AV  25281.19063625  .00017238  00000-0  74116-3 0  9990
2 57217  97.5447 338.8417 0011448 261.9393  98.0544 15.22661020125930
STRATOSAT-TK1-A (RS45S)
1 57322U 23091AW  25215.67503098  .07408063  25679-5  15142-2 0  9994
2 57322  97.5141 289.6996 0015448 266.2521  93.7007 16.30886971114947
STRATOSAT-TK1-E (RS52SE)
1 57323U 23091AX  25281.21229992  .00052562  00000-0  12702-2 0  9993
2 57323  97.5415 346.0261 0008107 237.6482 122.3980 15.40957488124297
STRATOSAT-TK1-B (RS52SB)
1 57324U 23091AY  25217.78564514  .05861195  25561-5  16793-2 0  9990
2 57324  97.5286 291.8408 0015433 269.9290  90.0234 16.27221432115268
STRATOSAT-TK1-D (RS52SD)
1 57326U 23091BA  25281.19860198  .00051478  00000-0  12974-2 0  9998
2 57326  97.5407 345.5321 0008072 240.0679 119.9765 15.39685544124101
STRATOSAT-TK1-V (RS52SV)
1 57327U 23091BB  25215.94783005  .07226389  25611-5  16265-2 0  9999
2 57327  97.5142 290.0171 0015369 258.0341 101.9230 16.29874339114825
VERONIKA
1 58261U 23174F   25226.74650706  .09886468  25425-5  70553-3 0  9996
2 58261  97.3922 318.3866 0015160 267.1721  92.7843 16.39664098 99160
